{"fetched_at":"2026-03-29T16:36:15Z","count":15609,"tles":[{"name":"TRANSPORTER-14 OBJECT AC","line1":"1 64554U 25135AC  26087.82142293  .00024812  00000+0  91740-3 0  9994","line2":"2 64554  97.4535 204.7250 0001767 192.5711 167.5485 15.27696602 42721","category":"Other"}]}